#dP2019  3 25  0  0  0.00000000      96 __u+U IGS08 FIT  IAC
## 2046  86400.00000000   900.00000000 58567 0.0000000000000
+   97   C01C02C03C04C05C06C07C08C09C10C11C12C13C14C16E01E02
+        E03E04E05E07E08E09E11E12E13E14E15E18E19E21E24E25E26
+        E27E30E31E33E36G01G02G03G04G05G06G07G08G09G10G11G12
+        G13G14G15G16G17G18G19G20G21G22G23G24G25G26G27G28G29
+        G30G31G32J01J02J03R01R02R03R04R05R07R08R09R10R11R13
+        R14R15R16R17R18R19R20R21R22R23R24R26  0  0  0  0  0
++        12 12 12 12  0 10  8  8  9  8  8  8  8  7  8  4  4
++         5  4  4  4  4  4  4  4  5  4  4  4  4  4  4  4  4
++         4  4  4  4  4  3  3  3  3  3  3  3  3  3  3  3  3
++         3  3  3  3  3  3  3  3  3  3  3  3  3  3  3  3  3
++         3  3  3  9  9 10  5  5  5  5  5  5  5  5  5  5  6
++         5  5  6  5  5  7  5  5  5  5  6  7  0  0  0  0  0
%c M  cc GPS ccc cccc cccc cccc cccc ccccc ccccc ccccc ccccc
%c cc cc ccc ccc cccc cccc cccc cccc ccccc ccccc ccccc ccccc
%f  1.2500000  1.025000000  0.00000000000  0.000000000000000
%f  0.0000000  0.000000000  0.00000000000  0.000000000000000
%i    0    0    0    0      0      0      0      0         0
%i    0    0    0    0      0      0      0      0         0
/* INFORMATION & ANALYSIS CENTER (IAC)            FINAL DATA
/* S/V CLOCKS ARE ALIGNED TO GPS & GLONASS TIME RESPECTIVELY
/* USING THE BROADCAST EPHEMERIS                            
/* PCV:IGS14_2038 OL/AL:FES2004  NONE     YN ORB:CoN CLK:CoN
*  2019 03 25 23  0  0.00000000
PC01 -32279.743527  27124.256656   -723.174168    376.701911
PC02   4424.155291  41918.716762    254.978311   -399.634460
PC03 -14667.244984  39554.823932   -527.955366      7.953184
PC04 -39630.631018  14380.057825   -720.313335     28.711306
PC05      0.000000      0.000000      0.000000 999999.999999
PC06 -13900.624934  21133.883569  34009.170633    583.982880
PC07 -23147.333555  33921.974105 -10387.849671     77.490650
PC08  -7863.865645  33582.675479 -23964.523792    135.346428
PC09   2530.000080  26379.073380  33067.669497    634.450336
PC10 -12014.507614  34725.039348 -20877.689571   -606.119932
PC11 -22626.907196 -12298.536726 -10757.967079    -68.961228
PC12  -8529.744262 -21997.398259  15028.388519    521.899257
PC13   1410.886683  40442.260418 -11344.817742   -614.440357
PC14 -18113.957186  -8718.037744 -19270.419006    731.794834
PC16  -9091.534437  22393.352680  34556.601625   -432.014783
PE01 -21149.027154   7254.193599  19390.382318   -569.887113
PE02  21169.066001  -7305.702918 -19369.877219     53.064319
PE03  29371.553052    705.417294  -3550.338770   -147.968423
PE04 -19132.896089  11694.298373  19327.346520   -247.918542
PE05  22471.208906  12781.873237  14419.877685     85.362489
PE07  -2465.955805 -17322.679570 -23867.473061   -156.163690
PE08  18939.406571 -11778.128629 -19451.630040   6382.921237
PE09   2617.399513  17165.686452  23977.646824   6489.211338
PE11   5783.056793  27559.114026  -9159.242620   5713.056801
PE12  -9234.431249  16451.333088 -22805.330407   6453.681277
PE13  -5795.067662 -27472.958810   9365.821507    384.699475
PE14  -6405.406135  19988.521795 -24953.879388   -504.450380
PE15   8886.869518 -16734.764525  22751.386275    915.981624
PE18   2222.178655 -15424.151390  17431.578805   -604.364783
PE19 -29483.910241  -1978.710102   1683.343855     -7.511838
PE21 -10812.483387 -12590.519095  24502.199195   -525.875353
PE24  -5536.588886  24668.022457 -15392.707368   6166.445482
PE25  10780.337362  12634.356214 -24502.154516   1854.433679
PE26 -16990.675031 -22303.081880  -9476.394688   4756.855862
PE27   5818.403541 -24822.365044  15042.036854    503.158394
PE30  18990.332451 -22535.139980  -2871.492444   5003.635938
PE31 -19002.232255  22465.703383   3225.692926    873.816764
PE33 -18399.595888  -3817.486251 -22854.575350    847.928988
PE36  17151.151221  22153.409488   9579.734715    732.111224
PG01  13434.282613  -9669.952434  20521.445292   -188.150438
PG02 -13787.146307 -14655.914251 -16817.174143   -172.740683
PG03  23271.512735 -12130.281516   3766.813213    187.280922
PG04   1880.703090 -15858.707044 -21212.856278    139.087375
PG05 -18694.122507  -3379.265864 -18760.527195      1.179098
PG06  -7494.216444 -23848.425718  -8875.864273    246.585453
PG07   7467.036680 -22148.939436 -11908.619546      7.867854
PG08  24358.069500   4185.385983  10036.818076   -137.508485
PG09   8002.211332 -13217.229372 -21648.255465    439.506668
PG10  -1983.045519  17729.016089  19673.192742     88.802587
PG11  15478.129815  -4928.950035  20465.355643   -638.576036
PG12 -24006.748251  10017.554082   4646.361387    256.989220
PG13 -23174.046445 -12487.780134   3575.667690    -70.338071
PG14  15840.031972  18567.043736  11010.885356    -86.984347
PG15 -24322.438523   -822.039041  10829.285866   -321.734304
PG16  19439.136768   3250.700979 -18194.988621    -27.963269
PG17  -7891.879974 -18290.937817  18019.685786     28.986882
PG18  15278.919642   1062.319813  21227.623350     38.199460
PG19 -15501.895027 -18400.176972  10847.004502   -338.162961
PG20 -10226.748685  20890.518737  12586.336117    523.425060
PG21  -2628.598305  25110.309943  -7648.656399   -225.359218
PG22  23084.711406  -6879.419307  11357.112763   -671.381887
PG23  19040.241463  -5071.504868 -17671.963836   -192.687727
PG24 -14909.849891   5575.235692  21073.653079    -63.888460
PG25 -18844.984390  17475.985179  -6343.680915   -737.732561
PG26  10951.499948  11071.618861 -21543.915910    158.877982
PG27  23827.956873  12101.362238   -284.746620    -93.959761
PG28   4528.357528 -17576.809209  20033.324744    766.795231
PG29 -13442.990656   8487.145051 -21305.427849    240.871731
PG30    506.218183 -26427.790246  -1198.281103    -74.879528
PG31   7791.853046  23015.231607 -10173.380986     49.605108
PG32  11619.491100  18078.409925  15730.385832   -163.488231
PJ01 -28417.694744  28958.166202  16463.870022   -338.496922
PJ02 -30317.382651  26544.767804  16984.739903      0.620939
PJ03 -26163.503745  16935.733638 -23792.753072     -0.327417
PR01 -15329.778063  10321.070908  17593.260555     41.367651
PR02   6473.132795  10097.843771  22558.221075    360.540927
PR03  21907.178098   3845.202697  12569.628198     -7.228457
PR04  24477.614398  -4953.223484  -5218.556292    299.936437
PR05  13321.083765 -10365.379106 -19121.359742     24.808964
PR07 -22153.691477  -3590.503490 -12052.596288    -17.116400
PR08 -24663.763732   4632.566137   4603.839358     18.506739
PR09   -177.338266 -19204.846963  16761.618769     61.006110
PR10  -9108.730517  -5772.837756  23087.896775     46.118232
PR11 -14605.782033  12640.364704  16691.123034    -60.860432
PR13   -758.026370  20090.843220 -15721.531351    -21.666412
PR14   9393.758735   5804.918068 -22988.420336     37.265844
PR15  14438.186046 -11893.267156 -17331.748776    100.877060
PR16  10893.031175 -23079.845111  -1657.498987     10.580049
PR17  17022.760424  16451.435075   9476.222424    215.048904
PR18  13681.337289   2504.407988  21416.886651     38.172464
PR19   3141.641853 -12830.051128  21825.084646    -21.926008
PR20 -10219.374857 -21806.275614   8340.219072   -372.903462
PR21 -17041.150517 -16135.608310 -10012.977331    -38.649969
PR22 -12273.164857     50.295277 -22330.140132    -11.259475
PR23    841.545019  16456.228566 -19478.119222    217.624486
PR24  11564.566943  21729.520636  -6754.303238   -178.612141
PR26  -9222.569612 -21327.056894  10561.571022      3.227577
EOF
